[
    {
        "Altitude(m)": 612502.1947429077,
        "Argument of Periapsis(deg)": 0.0,
        "Eccentricity": 0.0,
        "Inclination(deg)": 60.0,
        "Latitude(deg)": -28.135973581247143,
        "Longitude(deg)": 137.1482108695363,
        "Mean Anomaly(deg)": -32.72730000000006,
        "RAAN(deg)": 255.0,
        "Satellite Name": "Test1 1142",
        "Satellite Number": 1142,
        "Semi-Major Axis(m)": 6980739.136638005,
        "Time(s)": 0
    },
    {
        "Altitude(m)": 612308.6427666128,
        "Argument of Periapsis(deg)": 0.00010418945913296404,
        "Eccentricity": 0.0,
        "Inclination(deg)": 60.0,
        "Latitude(deg)": -27.62302933486232,
        "Longitude(deg)": 137.5016858461495,
        "Mean Anomaly(deg)": -32.10719385453821,
        "RAAN(deg)": 254.99957995086027,
        "Satellite Name": "Test1 1142",
        "Satellite Number": 1142,
        "Semi-Major Axis(m)": 6980739.136638005,
        "Time(s)": 10
    }
]